[{"OBJECT_NAME":"STARLINK-4685","OBJECT_ID":"2022-107K","EPOCH":"2026-03-09T17:23:40.113312","MEAN_MOTION":15.08832296,"ECCENTRICITY":0.00011349,"INCLINATION":53.2164,"RA_OF_ASC_NODE":248.6592,"ARG_OF_PERICENTER":83.1131,"MEAN_ANOMALY":276.9991,"EPHEMERIS_TYPE":0,"CLASSIFICATION_TYPE":"U","NORAD_CAT_ID":53709,"ELEMENT_SET_NO":999,"REV_AT_EPOCH":19448,"BSTAR":-0.00021643466,"MEAN_MOTION_DOT":-3.73e-5,"MEAN_MOTION_DDOT":0},{"OBJECT_NAME":"NANOFF B","OBJECT_ID":"2023-185S","EPOCH":"2026-03-09T23:34:31.291104","MEAN_MOTION":15.11549361,"ECCENTRICITY":0.00109129,"INCLINATION":97.5361,"RA_OF_ASC_NODE":137.8575,"ARG_OF_PERICENTER":288.4201,"MEAN_ANOMALY":71.5842,"EPHEMERIS_TYPE":0,"CLASSIFICATION_TYPE":"U","NORAD_CAT_ID":58755,"ELEMENT_SET_NO":999,"REV_AT_EPOCH":11888,"BSTAR":0.00028764283,"MEAN_MOTION_DOT":4.819e-5,"MEAN_MOTION_DDOT":0}]
